{
  "norad_id": 40974,
  "name": "BISONSAT",
  "history": [
    {
      "epoch": "2026-03-28T09:13:18.742944",
      "apogee_km": 577.5795805513944,
      "perigee_km": 469.0071065582306,
      "latitude_deg": -59.696536231695276,
      "longitude_deg": 114.28749215998687,
      "semi_major_axis_km": 6901.430343554812,
      "eccentricity": 0.00786594,
      "inclination_deg": 64.7591,
      "raan_deg": 74.5218,
      "arg_perigee_deg": 82.6957,
      "mean_anomaly_deg": 278.3098,
      "mean_motion_rev_day": 15.14237853
    },
    {
      "epoch": "2026-03-29T02:39:26.451648",
      "apogee_km": 577.511410912166,
      "perigee_km": 468.9241148024166,
      "latitude_deg": -55.387624768361434,
      "longitude_deg": -175.97060928004794,
      "semi_major_axis_km": 6901.3547628572915,
      "eccentricity": 0.0078671,
      "inclination_deg": 64.7589,
      "raan_deg": 72.1799,
      "arg_perigee_deg": 82.3698,
      "mean_anomaly_deg": 278.6352,
      "mean_motion_rev_day": 15.14262728
    }
  ]
}